{"type":"FeatureCollection","features":[{"type":"Feature","properties":{"phase":1,"labelPoint":[43.7724115,-116.73638285000001],"label":"Phase 1","lots":38},"geometry":{"type":"MultiPolygon","coordinates":[[[[-116.7393539976399,43.77543439888087],[-116.7375651006309,43.77542159930956],[-116.73758719989955,43.77449430421438],[-116.7375950999587,43.773981302682024],[-116.73760939993943,43.77334310260811],[-116.7376400242968,43.77181172700903],[-116.73512530119457,43.77178909884234],[-116.73518159996378,43.76929960160397],[-116.73519169989213,43.76890800418274],[-116.73519609268264,43.7686554579204],[-116.73509869864456,43.768361196018404],[-116.73496590568809,43.76797107693884],[-116.73498800222066,43.76788149014443],[-116.73510759963949,43.76735070160003],[-116.73523600113488,43.76677200053093],[-116.73539088309136,43.76662495323043],[-116.73539540118662,43.76650660088242],[-116.73596653591324,43.766311498685596],[-116.7362146381527,43.76602684140578],[-116.73641829499635,43.765716707549075],[-116.73652007736665,43.76555689174146],[-116.73663520099731,43.76469350104645],[-116.73851269886424,43.76471350112445],[-116.73851269891898,43.765323399450494],[-116.73804327253654,43.76566561500581],[-116.73803357369505,43.765670907595094],[-116.73798082661213,43.765686492063054],[-116.7379724999108,43.765687999004186],[-116.73795460018998,43.76568799874815],[-116.73788947995308,43.76566778917467],[-116.73787947375395,43.76566238108392],[-116.73785731566967,43.76564641129345],[-116.73782370113422,43.76561889916464],[-116.73779678002185,43.76553834746403],[-116.73779540131346,43.76553769889302],[-116.73780071168927,43.76550676641256],[-116.73779978217428,43.76547370341157],[-116.73777761740837,43.76542264965662],[-116.73775545995359,43.76539696145909],[-116.73774224959483,43.76538424773037],[-116.73773230086016,43.765376999325255],[-116.73773069893878,43.76537352200234],[-116.7377288995512,43.7653745982784],[-116.73771125317838,43.76536183845668],[-116.73769451419321,43.765352683473786],[-116.73766244419255,43.765338783511446],[-116.73763143216004,43.76532979017702],[-116.73758274006568,43.7653234],[-116.73752080035835,43.76532340399615],[-116.73747650150045,43.76532980631322],[-116.7374367022061,43.76534260537573],[-116.73739545752251,43.76536237585696],[-116.73738359938717,43.76537459916131],[-116.7373657847011,43.76538425387113],[-116.73735699871602,43.765396998876035],[-116.73733931613913,43.76541301194292],[-116.7373347992493,43.76542259956863],[-116.73731798416516,43.76544700281787],[-116.73731270469884,43.76547370045712],[-116.73731269532597,43.76548332379505],[-116.73730738036008,43.76550666278361],[-116.73731372658936,43.76554346400632],[-116.73731709910528,43.76554410118861],[-116.73732117801363,43.765559621700895],[-116.73733039575761,43.76556959684678],[-116.73732870359738,43.765570475961745],[-116.73733063718771,43.76557364711445],[-116.73735259790087,43.765598399315984],[-116.7373520197635,43.76560003623974],[-116.7373766834989,43.76562377982188],[-116.73737911986788,43.76562401257176],[-116.73741450190013,43.76564639628687],[-116.7374543494184,43.76566237708287],[-116.73749874587529,43.76567200662758],[-116.73754299026805,43.76567839930065],[-116.73754149564263,43.765680148629194],[-116.73762849920591,43.76571090139724],[-116.73766264565634,43.765738873555215],[-116.73766689955163,43.76573910122848],[-116.73769347142408,43.76576147593607],[-116.73772009947989,43.76578070061102],[-116.7377224,43.765783024548746],[-116.73772239897433,43.765894299762536],[-116.73772008012104,43.76589901435434],[-116.7372197,43.7662603],[-116.73714888601525,43.76630831020517],[-116.73672818493213,43.766615311908474],[-116.73663518550563,43.76668881238122],[-116.73654216711334,43.76676883450736],[-116.73649351356387,43.766819885767674],[-116.7364625097346,43.76685508894653],[-116.73640942741461,43.766919066957904],[-116.73639170567947,43.76694459181771],[-116.73632972326807,43.76703736615553],[-116.73627661203913,43.76713007898252],[-116.73627334130755,43.76713068612375],[-116.73627658949529,43.76713332274044],[-116.73623230486842,43.767229201675626],[-116.73622779295083,43.767248421280506],[-116.73620130751613,43.76732837730983],[-116.7361924103092,43.76736026304903],[-116.73617911008458,43.76742744904635],[-116.7361702981107,43.767510635725124],[-116.7361659,43.76759382642388],[-116.7361659,43.76803177709524],[-116.73617030339895,43.76814059971905],[-116.73618798860204,43.76824603368465],[-116.73621009573114,43.768316386420814],[-116.73621898761202,43.76835155100483],[-116.7362587815928,43.768460250186145],[-116.73628098491959,43.76850506956746],[-116.73681229166137,43.76942918548122],[-116.73689134327087,43.76955665084086],[-116.73696742814847,43.76966974919898],[-116.73707798494094,43.769825679074465],[-116.73719757658561,43.769975970443035],[-116.7372419067343,43.77002400793542],[-116.73732889881609,43.770126500283546],[-116.73730347902719,43.77023211483443],[-116.7369291251709,43.770433886715246],[-116.73684499994258,43.77044609925756],[-116.73680353635876,43.770442903286664],[-116.73679014801505,43.7704397088974],[-116.73674857745556,43.77044248274938],[-116.73672379995,43.770446099322854],[-116.73670544618457,43.77044602477048],[-116.73665743178303,43.770465187302754],[-116.73661758005755,43.77048436147606],[-116.73658650334308,43.77050680376678],[-116.73655987700316,43.77053569306942],[-116.7365466992784,43.7705643988462],[-116.73654232137302,43.77056484496033],[-116.7365421985721,43.770573999688374],[-116.73653268742191,43.770598503919025],[-116.73653340469883,43.77063469954288],[-116.73653780665366,43.77065709785497],[-116.73655111420827,43.77068909109072],[-116.73657108405084,43.77071208091795],[-116.73657143199944,43.770714930934446],[-116.73657459923719,43.77071630105158],[-116.73658189889042,43.770724100506655],[-116.7365813248109,43.77072596894347],[-116.73658539943666,43.77072710111867],[-116.73660830195197,43.77074689729476],[-116.73664750291096,43.77077049354493],[-116.73669280089798,43.77078499665142],[-116.7367281795413,43.770791396301256],[-116.73673710258939,43.770794585145204],[-116.73678602699667,43.7707978],[-116.73684589999793,43.77078870111827],[-116.73685116721605,43.7707898876985],[-116.7368551255661,43.77078639393347],[-116.7368696331527,43.77078512812083],[-116.73691423649373,43.770768967936725],[-116.73694080047979,43.770749800804246],[-116.73695403093005,43.77074336847491],[-116.73697620048279,43.770724301338554],[-116.73698176939487,43.77072404143957],[-116.7369847008333,43.770717600860976],[-116.73698762820422,43.7707160900667],[-116.73698600172261,43.77071469886412],[-116.7369871011948,43.77071210071349],[-116.73700723092327,43.770689009388775],[-116.73702049286052,43.77065709766454],[-116.73702550128915,43.77063180056805],[-116.73707841999025,43.77055938926032],[-116.73728337828621,43.77044931166111],[-116.73728627333475,43.770449170233526],[-116.73729391738519,43.77044359071203],[-116.73742690024538,43.77037220122082],[-116.73759009957759,43.77038800107551],[-116.73761821555111,43.770414113301655],[-116.7377598850778,43.77053558703592],[-116.73787798168001,43.77063138441195],[-116.73789288259317,43.77064756469545],[-116.7384152851719,43.77105678840249],[-116.73860120978053,43.7711911067117],[-116.73868982968838,43.77125191749603],[-116.73888093628784,43.771366890535965],[-116.73888462154905,43.77136701143272],[-116.73908391784822,43.77147250849956],[-116.73929419893048,43.771572800917134],[-116.73933479855359,43.77168529971901],[-116.73927870610844,43.77175070440987],[-116.73926988714263,43.77176671627147],[-116.73923453966157,43.77181145944908],[-116.73922998446665,43.77182422420503],[-116.7391693251365,43.771918717496376],[-116.73916981612433,43.77192012295572],[-116.73917248935219,43.77192022166732],[-116.73912378212573,43.77201934842129],[-116.7390838899982,43.77212803910208],[-116.73906179574283,43.772214420024476],[-116.73901749389762,43.772425421083454],[-116.73899530468628,43.77250208380908],[-116.73898270686017,43.77253168388402],[-116.7388580098411,43.772767680317806],[-116.7388404131532,43.77279627862607],[-116.73872083066539,43.77295295983337],[-116.73870309224819,43.77298181119704],[-116.73863667878084,43.77307773701389],[-116.73858237704343,43.77317245286967],[-116.73853259450246,43.773287494536255],[-116.73853479263701,43.77328882353778],[-116.73850029869682,43.77340137946734],[-116.73848170340928,43.77351577906273],[-116.73847728849657,43.77352871614423],[-116.73846589918101,43.77364370651774],[-116.73845960231239,43.77369488102657],[-116.73845509176806,43.773710992702846],[-116.73844630391949,43.77380995586129],[-116.7384463,43.77387707662642],[-116.7384418024184,43.773925165296404],[-116.73844630424405,43.77406904591863],[-116.73845959774886,43.774212875643684],[-116.73845665261848,43.774214054656426],[-116.73845960391016,43.77421612502499],[-116.73849050790174,43.77438243015406],[-116.7385214958186,43.774500684043254],[-116.73853929381318,43.774561378002396],[-116.73853934186432,43.774580587489886],[-116.73854369875848,43.77458700038557],[-116.7385436933769,43.774590922707745],[-116.73852669912034,43.7746471993716],[-116.73852147229475,43.77465105145213],[-116.73849817071472,43.774681287826816],[-116.73849939787615,43.774682901116456],[-116.73848053848285,43.774710223256875],[-116.73848169273172,43.774711723519786],[-116.73847219712968,43.77474259482212],[-116.73847223411502,43.77477368796457],[-116.73848168043388,43.77480433690478],[-116.73849503092092,43.77483325035691],[-116.7385135911254,43.774863325094586],[-116.7385198993104,43.774864801036976],[-116.73854225864335,43.774887431469615],[-116.73857454170368,43.77490670029499],[-116.73857909972659,43.77490680112493],[-116.73861011005039,43.77492276371493],[-116.73865444599286,43.77493240663358],[-116.73869599977041,43.7749384009698],[-116.73870315604162,43.77494133598779],[-116.73871270015887,43.77493870111212],[-116.73874289965644,43.7749386961144],[-116.73877837888939,43.77493240365381],[-116.73878724244128,43.774932384456385],[-116.73882257869768,43.7749228057769],[-116.73882713966663,43.77492275746778],[-116.73885810026906,43.774906801113175],[-116.73886266130259,43.774906695002684],[-116.73888880046368,43.77489050106524],[-116.73890059937578,43.77488770091227],[-116.7393539976399,43.77543439888087]]],[[[-116.73721970000807,43.7662603000119],[-116.73721970002161,43.766260300030766],[-116.7372197000211,43.76626030003112],[-116.73721970000807,43.7662603000119]]],[[[-116.74038529824193,43.77079840051377],[-116.73982779958904,43.77160359844484],[-116.73980119898214,43.771590802593906],[-116.73978497797472,43.7715857908228],[-116.73966340295856,43.771535201229355],[-116.73951781775159,43.771472507644404],[-116.73945138727542,43.77144689425921],[-116.7392613148192,43.77136170759033],[-116.73866497811612,43.77100428336825],[-116.73858348128628,43.770944885278304],[-116.73806101929179,43.77053561492002],[-116.73806276096157,43.77053397389578],[-116.7380432455554,43.77051635644432],[-116.7376377003007,43.77015749847076],[-116.73727861602536,43.769746118354234],[-116.73728028520867,43.76974472781301],[-116.73722989481612,43.76966899222418],[-116.73702769686652,43.76936574529978],[-116.73702488798871,43.76936527977047],[-116.7366928024661,43.768789704272784],[-116.73652450213709,43.768505101456746],[-116.73652695537659,43.76850396751802],[-116.73641650108928,43.76822239974229],[-116.73639599280291,43.76803269709474],[-116.73639170114953,43.76803179885048],[-116.7363917,43.76761292443815],[-116.73639608685178,43.76761240984807],[-116.73639630111883,43.76759520032861],[-116.73689153215642,43.76673176155359],[-116.73689088682032,43.76673044207398],[-116.73688760340656,43.76673039896305],[-116.7369496221473,43.766688783287194],[-116.73704700425463,43.76661529692738],[-116.73747210000018,43.766308301380356],[-116.73751199890772,43.76633710055869],[-116.73751204159363,43.76858173428994],[-116.73823779832635,43.769487697912126],[-116.73847280309023,43.76978410381992],[-116.73873394238022,43.77010690516192],[-116.73925659603957,43.770327698327904],[-116.73954899729978,43.77044819888722],[-116.74038529824193,43.77079840051377]]]]}},{"type":"Feature","properties":{"phase":2,"labelPoint":[43.77279899887029,-116.75041013763735],"label":"Phase 2","lots":44},"geometry":{"type":"MultiPolygon","coordinates":[[[[-116.75161949882283,43.76756179879904],[-116.7516169437361,43.76756277098836],[-116.7516194,43.76756499269397],[-116.75161510071143,43.767712075662246],[-116.7516120907409,43.76771306472172],[-116.75161509903946,43.76771532512763],[-116.75161259871241,43.76778071374307],[-116.75160060176394,43.76790748162085],[-116.75158700684653,43.76797996793541],[-116.75139950640177,43.768508881941706],[-116.7513893089337,43.7685338772597],[-116.75137898662568,43.76855031762015],[-116.75103611595296,43.76900167905028],[-116.75101069953313,43.76902839901064],[-116.75086852971455,43.76904549642673],[-116.75085790026935,43.76904549888595],[-116.75062769219012,43.768927196139906],[-116.75037532666106,43.768802513150035],[-116.75010961394587,43.76869060586308],[-116.74997669471169,43.768639398030906],[-116.74975980388304,43.76855940140403],[-116.74974650035853,43.768556198815865],[-116.74974208421871,43.76855314870033],[-116.7497275928155,43.76855009760517],[-116.74964458313606,43.76852109457627],[-116.74946750856004,43.768463502749526],[-116.7492869005517,43.76840809898078],[-116.74921820083371,43.768351799350825],[-116.74921065021044,43.76833552839254],[-116.74917968317519,43.7682940183376],[-116.7491576011248,43.76828129850164],[-116.74914425780429,43.768268481693745],[-116.7491087967792,43.76824927000421],[-116.74906457816569,43.76823649474663],[-116.74903804490954,43.7682301108053],[-116.74901597127928,43.76822691032098],[-116.74895834510579,43.7682269],[-116.74892294376818,43.76823009972006],[-116.74890517332447,43.76823650644903],[-116.74887854671002,43.76824291926869],[-116.74883870303114,43.76825890531279],[-116.74879000181183,43.76829400217437],[-116.74877676568029,43.768306841286865],[-116.74876356112314,43.76832273264058],[-116.74875899913236,43.7683355995591],[-116.74874138230089,43.76836111909764],[-116.74874129848945,43.768380399747585],[-116.74873510973752,43.76839846947661],[-116.74873689885047,43.768399601149525],[-116.74873582825634,43.76840389998118],[-116.74874219009568,43.76843580849752],[-116.74875019058489,43.76846344297514],[-116.74877230391685,43.76849549667815],[-116.7487988494304,43.76852105133152],[-116.74883430209289,43.76854669647423],[-116.74885389578192,43.76855610260368],[-116.74887643007861,43.76856595770858],[-116.74888439978336,43.768565901444404],[-116.74891408287647,43.768575411973124],[-116.74895837186176,43.7685818],[-116.74900692813824,43.7685818],[-116.74905574704279,43.76857538052148],[-116.74908890020825,43.768564801330264],[-116.74910680677017,43.76856467542946],[-116.74913467142929,43.768558266753224],[-116.74913504071017,43.76855671653039],[-116.74913290210338,43.76855619912817],[-116.74913540057433,43.768553101201014],[-116.74916199981256,43.7685531016302],[-116.74919741987755,43.76855940638476],[-116.74945417687567,43.76863939289687],[-116.74998651951067,43.768829108920215],[-116.75049532042361,43.76906171043172],[-116.75071507589472,43.769172788414515],[-116.75076048389563,43.76922708087606],[-116.75076049892812,43.76923989979837],[-116.75074299857833,43.769284999244846],[-116.75073839933346,43.76929169934897],[-116.75071551731203,43.76930928557331],[-116.75007159949709,43.7697542989943],[-116.7491722249229,43.77010789050556],[-116.74897599135411,43.77015830237039],[-116.74868499670066,43.770238800890034],[-116.748307418354,43.77034049506719],[-116.74818479997417,43.77037849890636],[-116.74803710077677,43.77034029881913],[-116.74777160221967,43.769972801135644],[-116.74777594156313,43.769971443026854],[-116.7477762396506,43.769970051208034],[-116.74777140050386,43.769969598675765],[-116.74775960109395,43.76995909901105],[-116.7477096402666,43.76989004414226],[-116.74770518280224,43.76988968375766],[-116.74764758783314,43.76983528672707],[-116.74762990108422,43.7698128994479],[-116.7476295343933,43.76980672698954],[-116.74762107888574,43.76980648478252],[-116.74759888597613,43.769790488243146],[-116.74754540185248,43.7697449583113],[-116.74749261957392,43.76971381157554],[-116.74745490082474,43.76968659922196],[-116.74740940122064,43.76962459936665],[-116.74740844850254,43.76961460148113],[-116.74739739559693,43.7695881867908],[-116.74739560176712,43.7695828018463],[-116.74739674768865,43.76958127585557],[-116.74737310243312,43.76955390111275],[-116.74737486426643,43.76955360996774],[-116.74737487568682,43.76955220154563],[-116.74734650074525,43.76952829932423],[-116.74734200258807,43.76952184804867],[-116.74730659335376,43.769499555965425],[-116.74726819223669,43.769483644018486],[-116.74722584322734,43.7694709043536],[-116.74718705489421,43.7694676],[-116.74713407170157,43.7694676],[-116.74708970124973,43.76947400499677],[-116.74706309982996,43.76948359898111],[-116.74705649722428,43.769483601325724],[-116.74702330175548,43.76949960297581],[-116.74698791937854,43.76952188829974],[-116.74698515818882,43.76952207412724],[-116.74695691738897,43.769550682374984],[-116.74695447467802,43.76955089283986],[-116.7469335896068,43.76958113915186],[-116.74693469110773,43.76958272263488],[-116.74692142392138,43.769614705328394],[-116.74692139846748,43.76963069974204],[-116.74691447931448,43.76965057050219],[-116.7469213985721,43.76966580031163],[-116.74692144305966,43.76968429028468],[-116.74692589914144,43.76968500116007],[-116.74693475920301,43.7697138703572],[-116.74695914314933,43.76974548902169],[-116.74696131912383,43.76974581610428],[-116.74698784723464,43.76976815556602],[-116.74702329748781,43.7697904997034],[-116.74702142183617,43.76979136921232],[-116.7470217870174,43.76979278572252],[-116.74703089970264,43.769794001015626],[-116.74705870141034,43.76980649587354],[-116.74709857613344,43.76981609425767],[-116.74710328047009,43.76981932255036],[-116.74714284013623,43.7698225],[-116.74719144852384,43.7698225],[-116.74723129997076,43.769818400970635],[-116.74734429958387,43.76983690099654],[-116.74735912256072,43.76984762098297],[-116.74755498526237,43.77002978629302],[-116.74780088533771,43.77036877988196],[-116.7478053317836,43.770378469152504],[-116.74783449871738,43.7704157000943],[-116.74779349869074,43.77052289928775],[-116.74773619225432,43.77055160355474],[-116.74763469829138,43.77059822803494],[-116.74748822599597,43.7706794855578],[-116.74741290745204,43.770727395259584],[-116.74734214076442,43.770768976048025],[-116.74720928584229,43.77086491101154],[-116.74715167978631,43.770909717534764],[-116.74708529998357,43.77096729840635],[-116.74653181914995,43.770506907049814],[-116.74601370108047,43.77058679867159],[-116.74599155494856,43.770161413240274],[-116.74568160146889,43.76949000045434],[-116.74614204336905,43.76921490308188],[-116.74623510099467,43.76867780093212],[-116.74669190010674,43.76856780162922],[-116.74737132025983,43.76863732033497],[-116.74737940660836,43.76863509924791],[-116.74765098543595,43.76860399970102],[-116.74769330112657,43.76841803687677],[-116.74766978722906,43.768373978605496],[-116.7474484012844,43.768003099815324],[-116.74759402108452,43.7674387875208],[-116.7480169000735,43.767188501237975],[-116.74894500425279,43.767596980521795],[-116.74951389975931,43.7676067013526],[-116.7501211553972,43.76778185829251],[-116.7502904446121,43.767797404956895],[-116.75029111909492,43.767795184724065],[-116.75039680527665,43.76770787466356],[-116.75026010301876,43.76714291243581],[-116.75022467504581,43.76701176391676],[-116.74988820320576,43.76642020565828],[-116.74969780116639,43.76609409971614],[-116.7497332010976,43.765400200574874],[-116.74979959997651,43.76534900142593],[-116.75061438934826,43.76601409130656],[-116.75080920692366,43.76617720559042],[-116.75097300534773,43.766308304509],[-116.75105267753891,43.76637548106167],[-116.75107451941254,43.76639772461038],[-116.7514475818047,43.766870676932776],[-116.75145570496852,43.76688391168403],[-116.75146700529939,43.76690831838225],[-116.7516128990675,43.7674076001863],[-116.7516149988273,43.7674274988742],[-116.7516117466554,43.76742852720071],[-116.75161510095113,43.767430724189204],[-116.75161949882283,43.76756179879904]]],[[[-116.75337299885794,43.76596300071646],[-116.75334640004716,43.767405097438065],[-116.75334199989906,43.76755860623505],[-116.75333320013101,43.76810219190716],[-116.75333319992455,43.7683452043425],[-116.75328890013348,43.77094489183152],[-116.75328889994788,43.77102800360942],[-116.75327559888647,43.77194899887029],[-116.7526511986794,43.77194259998986],[-116.75134000190457,43.77193240001545],[-116.7508534985408,43.77192659998686],[-116.74943210084456,43.7719138000076],[-116.74768300108181,43.771900998900534],[-116.74767392137046,43.77152685977866],[-116.74704990207455,43.77126149963375],[-116.74707641786996,43.77123588386499],[-116.74720368729878,43.77112160923725],[-116.74794792319932,43.77064879107718],[-116.74820141901182,43.77055209366273],[-116.74838708043723,43.77049590845233],[-116.74838710444534,43.77049400032578],[-116.74840927084496,43.770490778746506],[-116.74850220866043,43.770462797702336],[-116.74857313616087,43.77044608910407],[-116.74865280673889,43.77042209817681],[-116.74879431253476,43.77038534686631],[-116.74879740039216,43.77038320091341],[-116.74882104933423,43.77037888573468],[-116.74895377746232,43.77034050651692],[-116.74925498371691,43.77026060433442],[-116.74939321806212,43.770219553672],[-116.74957821450154,43.770158294765004],[-116.74971988348044,43.770107105959994],[-116.7499318001679,43.770019601232406],[-116.75008709950623,43.77003700114605],[-116.75037966632826,43.770286170806564],[-116.75049481984543,43.770375714072216],[-116.75062452942885,43.77046965236344],[-116.75075609440886,43.770551596636906],[-116.75088890688254,43.7706283037329],[-116.75103058350982,43.77069869191448],[-116.75118117055781,43.770765786882],[-116.75120767549849,43.770775391211416],[-116.75122754451426,43.77078492051614],[-116.75137161261003,43.77084260481261],[-116.75157022212379,43.77091911474919],[-116.75162849888679,43.7709772007297],[-116.75163983692664,43.77100566219222],[-116.75165852503902,43.77103723973678],[-116.7516814993335,43.77105680059517],[-116.75168599741193,43.77106325195133],[-116.7517218848549,43.7710861087733],[-116.7517523726555,43.77109838869143],[-116.75175685570379,43.77110161098105],[-116.7517877738448,43.771111191900324],[-116.75179234434202,43.77111441868617],[-116.75183214330106,43.77112080313492],[-116.75187638732727,43.77112399098557],[-116.75191619964164,43.77112079600385],[-116.75195138031712,43.77111443971668],[-116.75195612522666,43.77111119216259],[-116.75198697488551,43.771101607802564],[-116.75199427923717,43.7711016595797],[-116.75199960086826,43.77109500113334],[-116.7520224964903,43.77108559371303],[-116.75205780258807,43.77106325195133],[-116.75206230067765,43.77105680060655],[-116.75208981396386,43.771032933222585],[-116.75208890158687,43.77103119946135],[-116.75210409719053,43.77100559861931],[-116.75211749814888,43.77097177177666],[-116.75211550114953,43.770970498850474],[-116.75211550151056,43.770964100252414],[-116.75211987573772,43.770951351865534],[-116.75211990106415,43.77093870025122],[-116.7521214329126,43.77093608930552],[-116.75211990114953,43.770935298850475],[-116.75211967301045,43.77092926560672],[-116.75211550114953,43.77092889885048],[-116.75211548334251,43.770919256186644],[-116.75211101622834,43.770903357700774],[-116.7520976362006,43.77087123659706],[-116.75207114789214,43.770842556968994],[-116.75204024841223,43.770817039979136],[-116.7520083798283,43.770796205850225],[-116.75197380039195,43.77078179874523],[-116.75196920218316,43.770778616181346],[-116.75192059930025,43.77076900623623],[-116.75187197204704,43.7707658052043],[-116.75182315866759,43.7707690146785],[-116.75178342864986,43.77077859312101],[-116.75176519989505,43.77078179872115],[-116.75175527376514,43.7707816253969],[-116.75175309948341,43.770784098787786],[-116.75167940022207,43.7707745991285],[-116.75149108864706,43.770698695669644],[-116.75133173097822,43.77063791181603],[-116.75131392897244,43.77062827437535],[-116.75125490041165,43.77060689918163],[-116.75056260051858,43.77018759928557],[-116.75036542133901,43.77001811851473],[-116.75035632324862,43.770008250025576],[-116.75035368073398,43.77000798333749],[-116.75028740102442,43.769951099343494],[-116.7502607012618,43.76988980014963],[-116.7503063009002,43.76982940095379],[-116.7504328222658,43.76975538552472],[-116.75064543243282,43.769611474332734],[-116.75073839124482,43.76953790692884],[-116.75080484607929,43.769489956893565],[-116.75086496558794,43.76943902873813],[-116.75101420141173,43.76930303911438],[-116.75101290315376,43.7693012989807],[-116.75102625206856,43.76929164950927],[-116.75105266331144,43.76926613557679],[-116.75106917519322,43.76924782377317],[-116.75108372424648,43.76923726585548],[-116.75109709529615,43.76922140470385],[-116.75116700940134,43.769155090598645],[-116.75125870064753,43.769061501295056],[-116.75126113936658,43.769061143558346],[-116.75128741992499,43.769026277407626],[-116.75134939032995,43.76895601096459],[-116.75138927924729,43.768908024965675],[-116.75143349590576,43.768847205631914],[-116.75147778476807,43.768789719770574],[-116.75151359717601,43.76873869729922],[-116.75155749179127,43.76866501362648],[-116.75158412842683,43.76862654588979],[-116.75163277543814,43.76853394675326],[-116.75164170813098,43.768511483277244],[-116.75169918116086,43.76839323902394],[-116.7517523907327,43.76824932665648],[-116.75177889478893,43.76815651824859],[-116.75180990699897,43.76803495730627],[-116.7518231966174,43.76795192117572],[-116.75183209941545,43.767875205037605],[-116.75184539766747,43.76771532449158],[-116.75184796316967,43.76771439458773],[-116.75184540100614,43.7677120748466],[-116.75184985719487,43.767544944989886],[-116.75184540098866,43.767430725143505],[-116.75184866044016,43.76742961743599],[-116.75184539723125,43.76742747508132],[-116.75183210661412,43.767309258820134],[-116.7518098059199,43.76719355433741],[-116.75177011269581,43.767062942926174],[-116.75175239725266,43.76701819234288],[-116.75172141512385,43.76693184215166],[-116.75165942291868,43.7668039465536],[-116.75159302002272,43.766692034389315],[-116.75154418841578,43.76662168461266],[-116.75145132706879,43.76650023518128],[-116.7513361090967,43.76637550970996],[-116.75126972364073,43.76630832392557],[-116.75119001548545,43.76623801362254],[-116.75023360303769,43.765451301117885],[-116.75043280456343,43.765454500031645],[-116.75229699968955,43.765467301393635],[-116.75337299885794,43.76596300071646]]]]}},{"type":"Feature","properties":{"phase":3,"labelPoint":[43.776357898846314,-116.74347194100513],"label":"Phase 3 \u2014 Future","lots":54},"geometry":{"type":"MultiPolygon","coordinates":[[[[-116.74767419891138,43.771526900738664],[-116.74768299973037,43.77190101165827],[-116.74766090002716,43.77291779870104],[-116.74764320011693,43.7739314935103],[-116.74761219888114,43.775507898846314],[-116.74654060597177,43.77549510007133],[-116.74475400067463,43.77548060000557],[-116.74271480488174,43.77546000004767],[-116.73935400054081,43.775434398861755],[-116.73890060108812,43.774887699413235],[-116.7389035214734,43.774885814753866],[-116.73890100122517,43.77488459883604],[-116.73890191621042,43.77488038361144],[-116.73892010050011,43.774862001198116],[-116.73892473506007,43.77486160760836],[-116.73895991063434,43.774804297840966],[-116.73896466536915,43.77477332984804],[-116.73896495271865,43.77474264983202],[-116.73895550718127,43.77471172350228],[-116.73895641674284,43.77471034449327],[-116.73894460115054,43.774687499845896],[-116.73894598753834,43.77468033881503],[-116.73893780058997,43.774679698778506],[-116.73891525493579,43.7746513032543],[-116.73891120044429,43.77465099863893],[-116.73889791793414,43.77464141271693],[-116.73889344819324,43.77463497067172],[-116.73888025206318,43.774625437579445],[-116.73885683956178,43.77461272151604],[-116.73885357973745,43.77461259021281],[-116.73882690052413,43.77459969922279],[-116.73876750118194,43.77454579951041],[-116.73868580251883,43.77370612418071],[-116.73868979938294,43.773662908912264],[-116.7386942121319,43.77364998917095],[-116.73870750096474,43.77352860114392],[-116.73871108859309,43.773528136162945],[-116.73890508616523,43.773059878433706],[-116.73890240211469,43.77305849894238],[-116.7389821096124,43.77295298664295],[-116.73903958557743,43.77287312004109],[-116.73904186195679,43.772873136492755],[-116.73904651245988,43.77286308202333],[-116.73909278432586,43.77279632261408],[-116.73911051531366,43.772767470973264],[-116.73916798928396,43.77265562172304],[-116.73921669520709,43.772543698460005],[-116.73922560481647,43.77250208327416],[-116.73924836943212,43.77242659195775],[-116.73928640090138,43.77224570034486],[-116.7394965956526,43.77181293841683],[-116.73949570222547,43.77181149892213],[-116.739531600593,43.77176620111623],[-116.7396885998732,43.77173580123028],[-116.74018262816197,43.771943716488515],[-116.74027518837747,43.77197889556879],[-116.7403015454859,43.771990476046845],[-116.74032201561381,43.771996705909615],[-116.74042411704846,43.77203571154015],[-116.74046098880237,43.77204489688955],[-116.74062924803009,43.772099181208624],[-116.74068237315846,43.77211199352973],[-116.74070881756967,43.77212156598307],[-116.74071342071798,43.77212160544538],[-116.74086839231533,43.772159998148275],[-116.74099678730606,43.77218879715276],[-116.74116938312095,43.77222009704378],[-116.74119225938766,43.77222588390815],[-116.74127826259806,43.772238594473706],[-116.74131481704596,43.7722412024015],[-116.74143067953548,43.77225589753501],[-116.74167427464285,43.77227509800141],[-116.74185778948494,43.77228029969254],[-116.74191695737439,43.77228452047966],[-116.74191782405201,43.7722815],[-116.74202410723831,43.77228149989519],[-116.74223822548664,43.77227840224453],[-116.74277242303789,43.77232630522708],[-116.74278433268762,43.77232901241267],[-116.74348109961615,43.772593600800356],[-116.74357390587643,43.77265240400808],[-116.74380407980665,43.77280908625694],[-116.74380375187845,43.77281087914083],[-116.74401532437817,43.77296422126785],[-116.74448001176896,43.773369411768954],[-116.74483910119231,43.77377765850549],[-116.74484471388475,43.773778018796],[-116.74495100576188,43.773921907498945],[-116.74530919000178,43.77438808750223],[-116.74531689046782,43.77440114575137],[-116.7453220154969,43.774404720209105],[-116.7453581029027,43.774452423947196],[-116.74536469867225,43.774510699665136],[-116.74535999924251,43.7745174993078],[-116.74530429955156,43.77455909909936],[-116.74526436868774,43.77456980410731],[-116.74467507252311,43.774647100564046],[-116.7443809056371,43.77464470006719],[-116.74422187579968,43.77463819515993],[-116.74372038038385,43.77455509509596],[-116.7434765014299,43.774491099198585],[-116.74326240032073,43.77442059906517],[-116.74295872294374,43.77427371108128],[-116.74289638482597,43.77423529133944],[-116.74281230961002,43.77418730548491],[-116.74277677101502,43.77416488427933],[-116.74272370957121,43.77413610519117],[-116.74263627029273,43.774090766686435],[-116.74248902465322,43.774021011451815],[-116.74233395924703,43.77395708639205],[-116.74221017966279,43.77391669200222],[-116.74216658891828,43.773899540438975],[-116.74215687746825,43.77389949348676],[-116.74201080012215,43.77385771700105],[-116.74192218091015,43.773835595973516],[-116.74181599350159,43.773813198719],[-116.7416166705439,43.77377799677264],[-116.74141298291984,43.773755598711915],[-116.7411172004896,43.77373329881806],[-116.74104177135449,43.77370143013417],[-116.74103660043376,43.77370129865997],[-116.74101892840098,43.773688520538556],[-116.74100555780429,43.773675681693746],[-116.74096585874194,43.77365652551686],[-116.74092584736741,43.77364368728873],[-116.74089944562942,43.77363731101993],[-116.74087727096804,43.77363411022963],[-116.74081525147616,43.7736341],[-116.74078420167132,43.773637307305485],[-116.74072227190769,43.77365651214803],[-116.7406824568359,43.77367566917374],[-116.74066475687195,43.77368845887226],[-116.74063817141938,43.773714037224906],[-116.74063369929372,43.77372359888072],[-116.74062497087856,43.773723952230554],[-116.74062479869478,43.77372999934436],[-116.74062251922281,43.773732169634364],[-116.74062479761969,43.77373320104711],[-116.74061601845958,43.77374281097813],[-116.7406115991098,43.77375559960311],[-116.74059992610269,43.77377660308699],[-116.74060269868653,43.77377800110698],[-116.74059830361932,43.77380360030881],[-116.74059831760682,43.773835596651615],[-116.74060930245669,43.773863498819196],[-116.74063209377266,43.77390461410218],[-116.74063809890458,43.77390910107346],[-116.74064246799983,43.773915282082626],[-116.74064701750618,43.773915519097656],[-116.74065579754765,43.773925098894004],[-116.74065350344866,43.77392522188047],[-116.74065329659518,43.773926739476316],[-116.74068239901149,43.77394430105048],[-116.74068698024517,43.77395077319586],[-116.74070901952204,43.77396031058822],[-116.74073252294467,43.773973031456954],[-116.74074002377985,43.77397310731688],[-116.7407503995382,43.77397630089334],[-116.74075647335067,43.77398092681734],[-116.74076179959502,43.77398090134078],[-116.7407645118961,43.77398267969772],[-116.74078419987414,43.7739827012512],[-116.740815200505,43.77398899497941],[-116.74086839975779,43.77398899692089],[-116.74090818061525,43.77398270306844],[-116.74091714265268,43.77398268428795],[-116.7409468001312,43.77397460097957],[-116.74095401694179,43.77397549374989],[-116.74098907653945,43.773955913234154],[-116.74100101699769,43.773950773776725],[-116.74100292087904,43.773948188639345],[-116.74103440058703,43.77393070143622],[-116.74114082262544,43.77390050197116],[-116.7413784241949,43.77392120453654],[-116.74206987513317,43.774052494671395],[-116.74265899560162,43.774311698064736],[-116.74266609972061,43.77431200100648],[-116.74281669593944,43.774401498829086],[-116.74281481839023,43.77440179416661],[-116.74281506905108,43.7744033231589],[-116.74287419929044,43.77443740081975],[-116.74291769867887,43.77449220020099],[-116.74289400943496,43.77455337484013],[-116.74289089932705,43.77455579865829],[-116.74228559981042,43.774743698749916],[-116.74211258932249,43.77473089941726],[-116.74187990033894,43.774718198721224],[-116.74180040074246,43.77468429868273],[-116.74178749462524,43.774673595590876],[-116.7417848007357,43.77467319895815],[-116.7417717504762,43.77466064854963],[-116.74175367733088,43.77464661684308],[-116.7417342004672,43.77463719921343],[-116.74172364690084,43.77462871362456],[-116.74171847960416,43.774628592625234],[-116.74167429905141,43.774612603515],[-116.7416387996446,43.77460620397416],[-116.74159002390097,43.774603005509434],[-116.74154133275458,43.77460620916983],[-116.74149795614848,43.774612475547336],[-116.74149707693333,43.77461580741672],[-116.74146322352019,43.77462669243746],[-116.741461915757,43.77462527326692],[-116.74145281289438,43.77463010929366],[-116.74145287752545,43.774631810814824],[-116.74142228674512,43.774646519409984],[-116.74140415339845,43.77466064449923],[-116.74138604092018,43.77467801183499],[-116.74138649768176,43.77467970067705],[-116.74137321382305,43.774692509898614],[-116.74136429939797,43.77470849885552],[-116.74136012698955,43.77470886560672],[-116.74135863398311,43.774717080184345],[-116.74135989785604,43.77471810112056],[-116.7413510303709,43.77473086375405],[-116.7413465916807,43.77474373025201],[-116.7413415839361,43.774761894887185],[-116.74134221615314,43.77479494319952],[-116.74135100515574,43.77482679798035],[-116.741364298129,43.774852398882466],[-116.74136283581595,43.77485389664759],[-116.74138649755947,43.774881198886085],[-116.7413841349355,43.77488227906811],[-116.7413864988104,43.77488440033376],[-116.74138686560671,43.77488737301046],[-116.74139092119354,43.77488761541348],[-116.74141299673637,43.77490359891292],[-116.74141053397898,43.774903780002084],[-116.74141056611369,43.77490537842594],[-116.74143517708536,43.77491958678796],[-116.74144849921782,43.77492921891969],[-116.74147499955713,43.77493560125512],[-116.74148830177755,43.77494189496284],[-116.74151487273429,43.77494829343983],[-116.74153135813009,43.77495468088363],[-116.74156365008331,43.7749579],[-116.74162101033133,43.7749579],[-116.74166534606164,43.77494831297765],[-116.7417140441925,43.774933016488575],[-116.74174615771068,43.774919117176054],[-116.74176472435876,43.77490669351288],[-116.74185970014383,43.774881401457584],[-116.74226253002824,43.77490707975212],[-116.74237822360901,43.774909997490234],[-116.74249335221161,43.77490040363669],[-116.74260407884596,43.774881203669],[-116.74261312497765,43.77488116715167],[-116.74271037928203,43.77485560544538],[-116.74271479885047,43.774855601149525],[-116.74271611951306,43.77485701313459],[-116.74273670053473,43.774845001166796],[-116.74279014378261,43.77482678021125],[-116.74286103792079,43.77479487889626],[-116.74291847780788,43.7747629123504],[-116.74292233839326,43.77476275606445],[-116.74295395562253,43.77474372134513],[-116.74296280059424,43.774734100777366],[-116.74299386041481,43.77471805639232],[-116.74303364274742,43.774689341325164],[-116.74307351272473,43.77465098928925],[-116.74308740049717,43.77463930070101],[-116.7431024328773,43.77463040774714],[-116.74310160851121,43.77462859920525],[-116.74324809993061,43.77460100120738],[-116.74339130343793,43.77464460091876],[-116.74341297312468,43.774648793445046],[-116.74342784733074,43.77465421219549],[-116.74377720277467,43.77474360069367],[-116.7439281372015,43.774772504475365],[-116.7440742214538,43.77479170193659],[-116.7442255841782,43.77480542904364],[-116.74436651592087,43.77481080018862],[-116.74463755538513,43.7748141],[-116.74470511210748,43.7748108],[-116.74481364852383,43.7748108],[-116.74487570767138,43.774804399445955],[-116.74496495028906,43.77479865761329],[-116.74500410521325,43.77479169927531],[-116.74512753128163,43.77477449341439],[-116.74527433389548,43.77474366199096],[-116.74542483852471,43.77470208735448],[-116.74557211702593,43.77465458597928],[-116.74559702413922,43.77464119034431],[-116.74569047737421,43.77460300934226],[-116.74569353345547,43.77460292200268],[-116.74577020028559,43.77456140063703],[-116.74578789884521,43.774554997427714],[-116.74581890023902,43.77453900110713],[-116.7458233593117,43.77453895150364],[-116.74584990046992,43.77451990079145],[-116.74587643925477,43.77450707638811],[-116.74593352668185,43.7744726835804],[-116.74595167950895,43.77445911481839],[-116.74597382697078,43.774446281946986],[-116.74603580062944,43.77440470122927],[-116.74604433439329,43.77440457301046],[-116.74604470114953,43.77440160114952],[-116.74604731781655,43.774400970761654],[-116.74604650084535,43.7743990011729],[-116.74605098445352,43.774396547362656],[-116.74605111864568,43.77439508425074],[-116.74610299021077,43.774351108318434],[-116.74613314603907,43.77432804127475],[-116.7461486164874,43.774312486049126],[-116.74621991684928,43.77425201674845],[-116.74623771254478,43.77422818581384],[-116.7463103698144,43.7741489327173],[-116.74639446871893,43.77403704197716],[-116.7464534901201,43.77394361534951],[-116.74646721484824,43.7739253527406],[-116.74646950950364,43.77391617917289],[-116.74652597000205,43.77379032605621],[-116.74652290778796,43.77378757690936],[-116.7465627767295,43.77366936899501],[-116.74658489595606,43.77354779963521],[-116.74658929929902,43.773423117827],[-116.74659359141167,43.773404557472205],[-116.74658280503728,43.7732832172011],[-116.74658049697872,43.77328237610145],[-116.74657159823535,43.77321198828083],[-116.74652730008836,43.772917800586846],[-116.74648750560289,43.77265563691151],[-116.74648310152934,43.77263640174845],[-116.74648707216765,43.772637812212366],[-116.74648810147778,43.77263637748067],[-116.74651194976653,43.772272965482436],[-116.74650960144017,43.77227189889999],[-116.74652859409117,43.772202023635344],[-116.7465361642054,43.772179330162174],[-116.74653620559653,43.77217407901303],[-116.74654259344165,43.77215042426592],[-116.74654505694035,43.77214969028468],[-116.74654520558886,43.772140781636594],[-116.74655570273485,43.77211003408615],[-116.74655390729515,43.77210877647516],[-116.74658551170786,43.77200128120579],[-116.74704990022192,43.77126150129298],[-116.74767419891138,43.771526900738664]],[[-116.73987430012392,43.77469190013003],[-116.73987245116835,43.77469007124611],[-116.73987113289652,43.7746905779277],[-116.73987321587852,43.774693548294024],[-116.73987430012392,43.77469190013003]],[[-116.7399147599368,43.77320494002733],[-116.73991382525031,43.77320317188185],[-116.73988745605142,43.77321816462345],[-116.73988880534114,43.77321858598479],[-116.7399147599368,43.77320494002733]]],[[[-116.7420671,43.7740519],[-116.74206710002967,43.77405189984367],[-116.74206710003334,43.774051899844416],[-116.7420671,43.7740519]]],[[[-116.74708529821761,43.7709672999343],[-116.74701875543798,43.771021641220884],[-116.74690813025437,43.771123972014024],[-116.74679307312564,43.771235829626015],[-116.74678419902389,43.77124869917222],[-116.74677087025806,43.771261534340866],[-116.74667346738538,43.77137344458366],[-116.74658931476472,43.77148847981687],[-116.74658712921257,43.77148889135935],[-116.74658928658816,43.7714917204459],[-116.74650958126433,43.77161323406482],[-116.7464476065961,43.771741086125836],[-116.74642990300362,43.771773101356345],[-116.74637579903265,43.77192519896037],[-116.74624219967654,43.771987298536715],[-116.74620227636936,43.771980587525036],[-116.74551450052702,43.771617499252066],[-116.74544370127441,43.77152549959858],[-116.74543687004962,43.77145100049628],[-116.74543410114953,43.77145009885048],[-116.7454341015262,43.771448800256344],[-116.74544250081215,43.77142450117984],[-116.74544572311146,43.77142386872086],[-116.7454522785291,43.771391],[-116.74544690467404,43.771363823795056],[-116.74544686084785,43.771354112306895],[-116.7454346207906,43.77132280429862],[-116.74541149608316,43.771290203321875],[-116.74537998723001,43.7712599837408],[-116.74534946552657,43.771242283411276],[-116.74530959760442,43.7712231070702],[-116.74527732338531,43.771216405396615],[-116.74527285846597,43.77121350422247],[-116.74522991841964,43.77121030166036],[-116.74521664742822,43.771207109143674],[-116.74513694770354,43.77121461233961],[-116.74509270196295,43.77122520551146],[-116.74507448175926,43.77123289900995],[-116.74506169946834,43.77124229911207],[-116.74503511094495,43.77125511474103],[-116.74502629909338,43.77126469897516],[-116.7450084459491,43.771277452412996],[-116.74498207135296,43.7713029372787],[-116.74496869047748,43.77133182396678],[-116.74495981782573,43.77135420341157],[-116.7449597985721,43.77138619968837],[-116.74495545047371,43.77139580595696],[-116.74496098036002,43.771423796625875],[-116.74496429921471,43.77142450110034],[-116.7449742420334,43.771453299351045],[-116.7449784088605,43.77145582215127],[-116.74497696980515,43.771461227770224],[-116.74499529729165,43.77147889890843],[-116.74499366730728,43.77148055656448],[-116.7450200901637,43.771507382318255],[-116.74502629956442,43.771507701343694],[-116.7450444197191,43.77152153602275],[-116.74508380246434,43.77154279382653],[-116.74516219945798,43.77156280142711],[-116.74523539928266,43.771600301000674],[-116.74528739359904,43.77166339212447],[-116.74531176595292,43.77169597909858],[-116.74531411558876,43.77169631821851],[-116.74537412512991,43.771766422174636],[-116.74537611735853,43.77176671735854],[-116.74544256462794,43.771833850353595],[-116.74549998496744,43.77187858828766],[-116.7455619501905,43.771923363774896],[-116.74561957387067,43.771955285529074],[-116.74564620200285,43.77197449663472],[-116.74570821616048,43.772003308765015],[-116.74576136530959,43.7720321244148],[-116.74588965592301,43.77208008352262],[-116.74601805311498,43.77211518642244],[-116.74619509963811,43.772147201351515],[-116.74627117737283,43.77219108694701],[-116.74627889882159,43.77219940058134],[-116.74628379916305,43.7722303000688],[-116.74628379713762,43.77224311873558],[-116.74627939506551,43.77227192051858],[-116.74626171666893,43.772345430687444],[-116.74625719733673,43.77239341646386],[-116.74624840321331,43.77244780025823],[-116.74624840515872,43.772550150590675],[-116.74625719742232,43.77263637472115],[-116.74625721123036,43.772655674301845],[-116.7463414,43.773212],[-116.74635019105332,43.77328232842664],[-116.74635459901194,43.7732984001785],[-116.74635569898291,43.77331069990745],[-116.74616360750304,43.774002772967975],[-116.74613818177984,43.77403631561728],[-116.74574819957593,43.7743689994188],[-116.74571629954991,43.77438829868137],[-116.74563060017873,43.7744030988713],[-116.74555511886744,43.77436331536078],[-116.7455488006301,43.77436319872692],[-116.7450440146525,43.77370131921108],[-116.74504629610823,43.77369847494841],[-116.74504398441312,43.77369808218643],[-116.74499079326236,43.77363729159524],[-116.74488007798074,43.77349977671996],[-116.74475611118007,43.77336871182021],[-116.74472956184643,43.77333666253574],[-116.74455253172,43.77316093205441],[-116.74447279518986,43.773093695727745],[-116.74435758622758,43.772991388658006],[-116.7441717208632,43.772841116843054],[-116.7439635073188,43.77269080528273],[-116.74372910080538,43.772527878861844],[-116.74372437946839,43.772527686109264],[-116.74365364906856,43.77247983319751],[-116.74362258599508,43.772463791569855],[-116.74356840752836,43.772431197367034],[-116.74343223286878,43.77236141663867],[-116.74334800934966,43.77232630389755],[-116.74328605817395,43.77229748489353],[-116.74313674212425,43.772245531730505],[-116.74312957679146,43.77224449263334],[-116.74306472456993,43.772223907798775],[-116.74292740779553,43.77218880188033],[-116.74279903167549,43.77216000710478],[-116.74269711467099,43.772144002303584],[-116.74261845612614,43.772133978301156],[-116.742493426847,43.77212160266963],[-116.74236496718113,43.7721152],[-116.74218350976706,43.7721152],[-116.74201970488281,43.772118399904606],[-116.74190857143371,43.77211829670051],[-116.7409648738791,43.772009294101736],[-116.74093778151484,43.772003194318856],[-116.74037748502417,43.77183099432495],[-116.73982780176522,43.77160359948156],[-116.7403853004113,43.770798401417714],[-116.74084620977635,43.77098970455899],[-116.74186814541852,43.77146656729646],[-116.74186912387886,43.7714628995995],[-116.74347199772438,43.771437300034485],[-116.74395829075269,43.77142769661636],[-116.74394140119472,43.7707019007604],[-116.74421150037877,43.7705836015087],[-116.74457459282262,43.77055477663488],[-116.74499080038011,43.77031820113985],[-116.74521667426673,43.77028940328074],[-116.74552632337482,43.77055166499593],[-116.74592517630614,43.77061289636256],[-116.74592647386409,43.77061493258056],[-116.74601316641623,43.770591002398405],[-116.74601372438289,43.77058679623503],[-116.74653179968199,43.77050680114742],[-116.74708529821761,43.7709672999343]]],[[[-116.740368,43.7718274],[-116.74036799992325,43.77182740020254],[-116.74036799991863,43.77182740020072],[-116.740368,43.7718274]]],[[[-116.7463414,43.773212],[-116.74634140007832,43.773211999988156],[-116.74634140007859,43.773211999990174],[-116.7463414,43.773212]]]]}}]}